NORAD_CAT_ID,OBJECT_NAME,OBJECT_TYPE,EPOCH,MEAN_MOTION,ECCENTRICITY,INCLINATION,RA_OF_ASC_NODE,ARG_OF_PERICENTER,MEAN_ANOMALY,BSTAR,MEAN_MOTION_DOT,MEAN_MOTION_DDOT,TLE_LINE0,TLE_LINE1,TLE_LINE2,SEMIMAJOR_AXIS,PERIOD,APOGEE,PERIGEE,DECAYED
49453.0,STARLINK-3129,PAYLOAD,2024-01-08 16:59:31,15.08847941,0.0001798,53.2161,170.0652,67.9082,292.2101,5.4231e-06,-2.02e-06,0.0,0 STARLINK-3129,1 49453U 21104AX  24008.70799841 -.00000202  00000-0  54231-5 0  9997,2 49453  53.2161 170.0652 0001798  67.9082 292.2101 15.08847941120437,6917.856,95.437,540.965,538.477,0.0
49453.0,STARLINK-3129,PAYLOAD,2024-01-09 10:28:45,15.08846306,0.0001865,53.2162,166.795,64.589,295.5295,7.3883e-05,8.88e-06,0.0,0 STARLINK-3129,1 49453U 21104AX  24009.43663730  .00000888  00000-0  73883-4 0  9997,2 49453  53.2162 166.7950 0001865  64.5890 295.5295 15.08846306119472,6917.861,95.437,541.016,538.436,0.0
49453.0,STARLINK-3129,PAYLOAD,2024-01-09 20:01:03,15.08851222,0.0001597,53.2166,165.0094,74.0834,286.0334,7.3417e-05,8.81e-06,0.0,0 STARLINK-3129,1 49453U 21104AX  24009.83407105  .00000881  00000-0  73417-4 0  9999,2 49453  53.2166 165.0094 0001597  74.0834 286.0334 15.08851222119532,6917.846,95.437,540.816,538.606,0.0
49453.0,STARLINK-3129,PAYLOAD,2024-01-10 16:41:05,15.08840401,0.000153,53.2167,161.1415,82.6843,277.4323,1.7274e-05,-1.3e-07,0.0,0 STARLINK-3129,1 49453U 21104AX  24010.69519867 -.00000013  00000-0  17274-4 0  9991,2 49453  53.2167 161.1415 0001530  82.6843 277.4323 15.08840401120732,6917.879,95.438,540.803,538.686,0.0
49453.0,STARLINK-3129,PAYLOAD,2024-01-11 14:56:28,15.08851505,0.0001674,53.2159,156.9773,104.8455,255.2722,-1.422e-06,-3.11e-06,0.0,0 STARLINK-3129,1 49453U 21104AX  24011.62255032 -.00000311  00000-0 -14220-5 0  9997,2 49453  53.2159 156.9773 0001674 104.8455 255.2722 15.08851505119807,6917.845,95.437,540.868,538.552,0.0
49453.0,STARLINK-3129,PAYLOAD,2024-01-11 16:31:51,15.08849071,0.0001415,53.2155,156.6818,89.9472,270.1682,0.00015557,2.189e-05,0.0,0 STARLINK-3129,1 49453U 21104AX  24011.68879208  .00002189  00000-0  15557-3 0  9995,2 49453  53.2155 156.6818 0001415  89.9472 270.1682 15.08849071120881,6917.853,95.437,540.697,538.739,0.0
49453.0,STARLINK-3129,PAYLOAD,2024-01-12 10:01:06,15.08835404,0.0001288,53.2165,153.4103,95.8928,264.2211,-3.2087e-05,-7.98e-06,0.0,0 STARLINK-3129,1 49453U 21104AX  24012.41744004 -.00000798  00000-0 -32087-4 0  9996,2 49453  53.2165 153.4103 0001288  95.8928 264.2211 15.08835404120993,6917.894,95.438,540.65,538.868,0.0
49453.0,STARLINK-3129,PAYLOAD,2024-01-12 14:47:16,15.08837005,0.0001367,53.2156,152.5175,107.1548,252.9594,-1.0312e-05,-4.52e-06,0.0,0 STARLINK-3129,1 49453U 21104AX  24012.61616001 -.00000452  00000-0 -10312-4 0  9997,2 49453  53.2156 152.5175 0001367 107.1548 252.9594 15.08837005119956,6917.89,95.438,540.7,538.809,0.0
49453.0,STARLINK-3129,PAYLOAD,2024-01-13 14:38:03,15.08844407,0.0001313,53.2158,148.0584,92.3028,267.8115,8.5418e-05,1.072e-05,0.0,0 STARLINK-3129,1 49453U 21104AX  24013.60975941  .00001072  00000-0  85418-4 0  9994,2 49453  53.2158 148.0584 0001313  92.3028 267.8115 15.08844407120108,6917.867,95.437,540.64,538.824,0.0
49453.0,STARLINK-3129,PAYLOAD,2024-01-13 19:24:12,15.08849873,0.0001302,53.2158,147.1665,90.1103,270.0038,0.00030799,4.618e-05,0.0,0 STARLINK-3129,1 49453U 21104AX  24013.80847798  .00004618  00000-0  30799-3 0  9994,2 49453  53.2158 147.1665 0001302  90.1103 270.0038 15.08849873121200,6917.85,95.437,540.616,538.815,0.0
49453.0,STARLINK-3129,PAYLOAD,2024-01-14 14:28:50,15.08838993,0.0001557,53.216,143.5962,91.79,268.3271,0.00014878,2.081e-05,0.0,0 STARLINK-3129,1 49453U 21104AX  24014.60336531  .00002081  00000-0  14878-3 0  9993,2 49453  53.2160 143.5962 0001557  91.7900 268.3271 15.08838993120251,6917.883,95.438,540.826,538.671,0.0
49453.0,STARLINK-3129,PAYLOAD,2024-01-15 14:19:37,15.08852438,0.0001564,53.2156,139.1368,84.489,275.628,0.0002245,3.288e-05,0.0,0 STARLINK-3129,1 49453U 21104AX  24015.59695945  .00003288  00000-0  22450-3 0  9994,2 49453  53.2156 139.1368 0001564  84.4890 275.6280 15.08852438120400,6917.842,95.437,540.789,538.625,0.0
49453.0,STARLINK-3129,PAYLOAD,2024-01-15 15:55:00,15.08851211,0.000192,53.2162,138.8432,60.476,299.6424,0.00029993,4.49e-05,0.0,0 STARLINK-3129,1 49453U 21104AX  24015.66320291  .00004490  00000-0  29993-3 0  9996,2 49453  53.2162 138.8432 0001920  60.4760 299.6424 15.08851211121484,6917.846,95.437,541.039,538.383,0.0
49453.0,STARLINK-3129,PAYLOAD,2024-01-16 12:35:02,15.08836561,0.0001541,53.2174,134.9782,68.3943,291.7213,6.8989e-05,8.1e-06,0.0,0 STARLINK-3129,1 49453U 21104AX  24016.52433047  .00000810  00000-0  68989-4 0  9997,2 49453  53.2174 134.9782 0001541  68.3943 291.7213 15.08836561121616,6917.891,95.438,540.822,538.69,0.0
49453.0,STARLINK-3129,PAYLOAD,2024-01-16 14:10:25,15.08837757,0.0001659,53.2164,134.6799,73.8388,286.2787,9.8917e-05,1.286e-05,0.0,0 STARLINK-3129,1 49453U 21104AX  24016.59057018  .00001286  00000-0  98917-4 0  9996,2 49453  53.2164 134.6799 0001659  73.8388 286.2787 15.08837757120559,6917.887,95.438,540.9,538.605,0.0
49453.0,STARLINK-3129,PAYLOAD,2024-01-16 15:45:48,15.08842422,0.0001546,53.2165,134.3805,92.1335,267.9834,0.00021494,3.135e-05,0.0,0 STARLINK-3129,1 49453U 21104AX  24016.65680769  .00003135  00000-0  21494-3 0  9998,2 49453  53.2165 134.3805 0001546  92.1335 267.9834 15.08842422120561,6917.873,95.437,540.807,538.668,0.0
49453.0,STARLINK-3129,PAYLOAD,2024-01-17 14:01:12,15.08843187,0.0001558,53.2168,130.2163,95.823,264.2939,0.00016434,2.329e-05,0.0,0 STARLINK-3129,1 49453U 21104AX  24017.58416988  .00002329  00000-0  16434-3 0  9993,2 49453  53.2168 130.2163 0001558  95.8230 264.2939 15.08843187120704,6917.871,95.437,540.813,538.658,0.0
49453.0,STARLINK-3129,PAYLOAD,2024-01-18 13:51:59,15.08846951,0.0001457,53.2159,125.7555,97.5763,262.5395,0.00028214,4.206e-05,0.0,0 STARLINK-3129,1 49453U 21104AX  24018.57776982  .00004206  00000-0  28214-3 0  9991,2 49453  53.2159 125.7555 0001457  97.5763 262.5395 15.08846951120851,6917.859,95.437,540.732,538.716,0.0
49453.0,STARLINK-3129,PAYLOAD,2024-01-19 12:07:22,15.08849274,0.0001623,53.2166,121.5929,101.0536,259.0639,0.0001914,2.76e-05,0.0,0 STARLINK-3129,1 49453U 21104AX  24019.50512678  .00002760  00000-0  19140-3 0  9996,2 49453  53.2166 121.5929 0001623 101.0536 259.0639 15.08849274122060,6917.852,95.437,540.84,538.594,0.0
49453.0,STARLINK-3129,PAYLOAD,2024-01-19 13:42:45,15.08851506,0.0001456,53.2159,121.295,91.9089,268.207,0.00019422,2.805e-05,0.0,0 STARLINK-3129,1 49453U 21104AX  24019.57136489  .00002805  00000-0  19422-3 0  9998,2 49453  53.2159 121.2950 0001456  91.9089 268.2070 15.08851506121002,6917.845,95.437,540.717,538.703,0.0
49453.0,STARLINK-3129,PAYLOAD,2024-01-19 16:53:32,15.08854757,0.0001484,53.2157,120.7,99.2625,260.8535,0.00024899,3.678e-05,0.0,0 STARLINK-3129,1 49453U 21104AX  24019.70384385  .00003678  00000-0  24899-3 0  9996,2 49453  53.2157 120.7000 0001484  99.2625 260.8535 15.08854757121025,6917.835,95.437,540.727,538.674,0.0
49453.0,STARLINK-3129,PAYLOAD,2024-01-20 11:58:10,15.08838597,0.0001872,53.2159,117.131,122.6772,237.4401,-2.8553e-05,-7.43e-06,0.0,0 STARLINK-3129,1 49453U 21104AX  24020.49872885 -.00000743  00000-0 -28553-4 0  9995,2 49453  53.2159 117.1310 0001872 122.6772 237.4401 15.08838597122214,6917.885,95.438,541.045,538.455,0.0
49453.0,STARLINK-3129,PAYLOAD,2024-01-20 15:08:56,15.08846301,0.0001526,53.217,116.5355,103.2392,256.8771,7.5221e-05,9.1e-06,0.0,0 STARLINK-3129,1 49453U 21104AX  24020.63120571  .00000910  00000-0  75221-4 0  9997,2 49453  53.2170 116.5355 0001526 103.2392 256.8771 15.08846301121168,6917.861,95.437,540.782,538.67,0.0
49453.0,STARLINK-3129,PAYLOAD,2024-01-21 11:48:57,15.0883076,0.000141,53.217,112.671,99.2304,260.8847,-0.00011354,-2.094e-05,0.0,0 STARLINK-3129,1 49453U 21104AX  24021.49233754 -.00002094  00000-0 -11354-3 0  9993,2 49453  53.2170 112.6710 0001410  99.2304 260.8847 15.08830760122363,6917.909,95.438,540.749,538.798,0.0
49453.0,STARLINK-3129,PAYLOAD,2024-01-21 14:59:44,15.08832008,0.0001485,53.2172,112.0763,104.605,255.5107,-8.0223e-05,-1.564e-05,0.0,0 STARLINK-3129,1 49453U 21104AX  24021.62481766 -.00001564  00000-0 -80223-4 0  9999,2 49453  53.2172 112.0763 0001485 104.6050 255.5107 15.08832008121319,6917.905,95.438,540.797,538.743,0.0
49453.0,STARLINK-3129,PAYLOAD,2024-01-22 11:39:44,15.08858322,0.0001328,53.217,108.2101,92.2394,267.875,0.00051416,7.908e-05,0.0,0 STARLINK-3129,1 49453U 21104AX  24022.48593020  .00007908  00000-0  51416-3 0  9998,2 49453  53.2170 108.2101 0001328  92.2394 267.8750 15.08858322122519,6917.824,95.436,540.608,538.771,0.0
49453.0,STARLINK-3129,PAYLOAD,2024-01-22 13:15:07,15.08858648,0.0001243,53.2159,107.9158,99.1708,260.9425,0.00054877,8.461e-05,0.0,0 STARLINK-3129,1 49453U 21104AX  24022.55217137  .00008461  00000-0  54877-3 0  9997,2 49453  53.2159 107.9158 0001243  99.1708 260.9425 15.08858648121451,6917.823,95.436,540.548,538.829,0.0
49453.0,STARLINK-3129,PAYLOAD,2024-01-23 09:55:08,15.08846969,0.0001664,53.2186,104.0442,74.0037,286.1138,0.00023232,3.412e-05,0.0,0 STARLINK-3129,1 49453U 21104AX  24023.41329682  .00003412  00000-0  23232-3 0  9994,2 49453  53.2186 104.0442 0001664  74.0037 286.1138 15.08846969122656,6917.859,95.437,540.875,538.573,0.0
49453.0,STARLINK-3129,PAYLOAD,2024-01-24 11:21:19,15.08844234,0.0001633,53.2175,99.2907,70.3826,289.7342,3.6386e-05,2.91e-06,0.0,0 STARLINK-3129,1 49453U 21104AX  24024.47313703  .00000291  00000-0  36386-4 0  9995,2 49453  53.2175  99.2907 0001633  70.3826 289.7342 15.08844234122813,6917.867,95.437,540.862,538.603,0.0
49453.0,STARLINK-3129,PAYLOAD,2024-01-25 00:04:24,15.08839065,0.000184,53.2168,96.917,66.9564,293.1622,8.7267e-05,1.101e-05,0.0,0 STARLINK-3129,1 49453U 21104AX  24025.00306220  .00001101  00000-0  87267-4 0  9996,2 49453  53.2168  96.9170 0001840  66.9564 293.1622 15.08839065122895,6917.883,95.438,541.021,538.475,0.0
